#Pass ID: 20250118_080936_METOP-C
#Satellite: METOP-C
#Configuration: METOP-C
#Start time: 2025-01-18 08:09:41.034989

#LorettStation: 1.0.0 05.05.2024
#Station: Regia
#Location: 37.494653 lon 55.929028 lat
#TLE: 1 43689U 18087A   25017.26345882  .00000256  00000+0  13693-3 0  9994
#TLE: 2 43689  98.6961  79.7219 0001524 160.2042 199.9195 14.21482430321539

#Time	Az	El	Level	SNR
#Closed at: 2025-01-18 08:09:36.035411